OBJECTID,Facility Identifier,Name of Facility,Subtype Field,Feature Code,Full Address,Operational Days,Operational Hours,Size of Park,Website,Number of Parking Spaces,Restrooms Available,ADA Compliant,Camping Available,Swimming Available,Hiking Available,Fishing Available,Picnicing Available,Boating Available,Hunting Available,Cycling Available,MTB Available,Playgrounds Available,Golf Available,Skiing Available,Soccer Fields Available,Baseball Fields Available,Basketball Courts Available,Junior Pools,Tennis Court Available,Lighted Tennis Court Available,Water Playground Available,Splash Pad Available,Dog Park Location,Disc Golf Available,Drinking Fountains Available,Basketball Half Court Available,Outdoor Fitness Available,Skatepark Available,Sand Volleyball Court,Recreation Center Available,Labyrinth,Toddler Park,Streams,Owner Type,x,y
1,Cha-494,Chamberlain,790,Park,4940 N FRANKFORT,Sun-Sat,Daylight,14,http://www.cityoftulsa.org/government/departments/park-and-recreation,0,No,No,No,No,No,No,No,No,No,No,No,Yes,No,No,No,Yes,Yes,No,No,Yes,Yes,No,No,No,No,No,No,No,No,Yes,No,No,No,Municipal,2561587.29822668,452658.844962016
2,Lak-382,Lakeview,790,Park,3829 N COLUMBIA AVE,Sun-Sat,Daylight,9.63,http://www.cityoftulsa.org/government/departments/park-and-recreation,0,No,No,No,No,No,No,No,No,No,No,No,No,No,No,No,No,No,No,No,No,No,No,No,No,No,Yes,No,No,No,No,No,No,No,Municipal,2572815.57219397,447063.999278367
3,Sta-162,Starks (Cheyenne),790,Park,1622 N MAIN ST,Sun-Sat,Daylight,3.78,http://www.cityoftulsa.org/government/departments/park-and-recreation,0,Yes,No,No,No,No,No,Yes,No,No,No,No,Yes,No,No,No,Yes,Yes,No,No,Yes,No,Yes,No,No,Yes,No,No,No,No,No,No,No,No,Municipal,2559415.97998074,435514.501380034
4,Exp-780,Explorer,790,Park,7807 E 58TH ST S,Sun-Sat,Daylight,4.7,http://www.cityoftulsa.org/government/departments/park-and-recreation,0,No,No,No,No,No,No,No,No,No,No,No,No,No,No,No,No,No,No,Yes,No,No,No,No,No,No,No,No,No,No,No,No,No,No,Municipal,2589979.22676095,400698.989482328
5,Adm-29,Admiral,790,Park,29 N VICTOR AVE,Sun-Sat,Daylight,2.3,http://www.cityoftulsa.org/government/departments/park-and-recreation,0,No,No,No,No,No,No,Yes,No,No,No,No,Yes,No,No,No,No,Yes,No,No,No,No,No,No,No,No,Yes,No,No,No,No,No,No,No,Municipal,2568899.56542626,428717.340187639
6,Dar-517,Darlington,790,Park,5179 E 29TH ST,Sun-Sat,Daylight,4.86,http://www.cityoftulsa.org/government/departments/park-and-recreation,0,No,No,No,No,No,No,Yes,No,No,No,No,Yes,No,No,No,No,No,No,Yes,No,No,No,No,No,No,Yes,No,No,No,No,No,No,No,Municipal,2583516.68678251,414853.963222846
7,Cre-175,Creek Council Oak,790,Park,1750 S CHEYENNE AVE,Sun-Sat,Daylight,1.87,http://www.cityoftulsa.org/government/departments/park-and-recreation,0,No,No,No,No,No,No,No,No,No,No,No,No,No,No,No,No,No,No,No,No,No,No,No,No,No,No,No,No,No,No,No,No,No,Municipal,2561999.87327095,419725.683302224
8,Hin-161,Hinch,790,Park,1616 S 157TH E AVE,Sun-Sat,Daylight,5,http://www.cityoftulsa.org/government/departments/park-and-recreation,0,No,No,No,No,No,No,No,No,No,No,No,No,No,No,No,No,No,No,No,No,No,No,No,No,No,No,No,No,No,No,No,No,No,Municipal,2616631.09520908,421476.112872221
9,Ska-291,Skatenorth,790,Park,2910 E 56TH ST N,Sun-Sat,Daylight,62.4,http://www.cityoftulsa.org/government/departments/park-and-recreation/sports/skate-parks,0,No,No,No,No,No,No,No,No,No,No,No,No,No,No,No,No,No,No,No,No,No,No,No,No,No,No,No,Yes,No,No,No,No,No,Municipal,2573543.53415668,455165.463144302
10,Nor-722,Norvell,790,Park,722 N 77TH E AVE,Sun-Sat,Daylight,6,http://www.cityoftulsa.org/government/departments/park-and-recreation,0,No,No,No,No,No,No,No,No,No,No,No,Yes,No,No,No,Yes,Yes,No,Yes,No,No,No,No,No,No,Yes,No,No,No,No,No,No,No,Municipal,2590771.82483127,431247.524185658
11,Phi-111,Philpott,790,Park,1114 W 37TH PL,Sun-Sat,Daylight,1028,http://www.cityoftulsa.org/government/departments/park-and-recreation,0,No,No,No,No,No,No,Yes,No,No,No,No,Yes,No,No,Yes,Yes,No,No,No,No,No,No,No,No,No,Yes,No,No,No,No,No,No,No,Municipal,2557680.70006876,409542.627470866
12,Sum-360,Summerglen Plaza,790,Park,3607 S 139TH E AVE,Sun-Sat,Daylight,20,http://www.cityoftulsa.org/government/departments/park-and-recreation,0,No,No,No,No,No,No,No,No,No,No,No,Yes,No,No,No,No,No,No,No,No,No,No,No,No,No,No,No,No,Yes,No,No,No,No,Municipal,2611169.38861283,411374.4381117
13,Ter-590,Terwilliger,790,Park,5902 W 10TH ST,Sun-Sat,Daylight,8,http://www.cityoftulsa.org/government/departments/park-and-recreation,0,No,No,No,No,No,No,No,No,No,No,No,Yes,No,No,No,Yes,No,No,No,No,No,No,No,No,Yes,Yes,No,No,No,No,No,No,No,Municipal,2541469.5948598,422556.484727219
14,Gun-123,Gunboat South,790,Park,1230 S FRANKFORT AVE,Sun-Sat,Daylight,0.25,http://www.cityoftulsa.org/government/departments/park-and-recreation,0,No,No,No,No,No,No,No,No,No,No,No,No,No,No,No,No,No,No,No,No,No,No,No,No,No,No,No,No,No,No,No,No,No,Municipal,2564516.16047918,422771.608968891
15,Boe-923,Boeing,790,Park,9234 E 2ND ST,Sun-Sat,Daylight,34,http://www.cityoftulsa.org/government/departments/park-and-recreation,0,Yes,No,No,No,No,No,Yes,No,No,No,No,Yes,No,No,No,Yes,No,No,No,No,No,No,No,No,No,Yes,No,No,No,No,No,No,No,Municipal,2596277.38509637,428740.82193201
16,Car-171,Carl Smith,790,Park,17120 E 21ST ST,Sun-Sat,Daylight,149,http://www.cityoftulsa.org/government/departments/park-and-recreation,0,Yes,No,No,No,No,No,No,No,No,No,No,Yes,No,No,No,Yes,No,No,No,No,No,No,No,No,Yes,No,No,No,No,No,No,No,Yes,Municipal,2622281.44849168,420022.61635337
17,Wri-437,Wright,790,Park,437 S 137TH E AVE,Sun-Sat,Daylight,4.66,http://www.cityoftulsa.org/government/departments/park-and-recreation,0,No,No,No,No,No,No,No,No,No,No,No,No,No,No,No,Yes,No,No,No,No,No,No,No,No,No,No,No,No,No,No,No,No,No,Municipal,2610768.43510043,427322.029247947
18,Jin-898,Jingle Feldman,790,Park,8989 E INDEPENDENCE ST,Sun-Sat,Daylight,5,http://www.cityoftulsa.org/government/departments/park-and-recreation,0,No,No,No,No,No,No,No,No,No,No,No,No,No,No,No,Yes,No,No,No,No,No,No,No,No,No,No,No,No,No,No,No,No,No,Municipal,2595527.9997021,431661.989810139
19,McC-115,McCullough,790,Park,11534 E 25TH ST,Sun-Sat,Daylight,11.5,http://www.cityoftulsa.org/government/departments/park-and-recreation,0,No,No,No,No,No,No,No,No,No,No,No,No,No,No,No,Yes,No,No,No,No,No,No,No,No,No,No,No,No,No,No,No,No,No,Municipal,2604333.58740585,417476.473971911
20,Moh-570,Mohawk,790,Park,5701 E 36TH ST N,Sun-Sat,Daylight,3170,http://www.cityoftulsa.org/government/departments/park-and-recreation,0,Yes,No,No,No,No,No,Yes,No,No,No,No,Yes,No,No,No,No,No,No,No,No,Yes,No,No,Yes,Yes,No,No,No,No,No,No,No,No,Municipal,2590473.21117324,451212.207845449
21,Pla-140,Plaza,790,Park,1404 S 145TH E AVE,Sun-Sat,Daylight,12.62,http://www.cityoftulsa.org/government/departments/park-and-recreation,0,No,No,No,No,No,No,No,No,No,No,No,Yes,No,No,No,No,No,No,No,No,No,No,No,No,Yes,No,No,No,No,No,No,No,Yes,Municipal,2613294.68866012,423052.513508782
22,Ree-423,Reed,790,Park,4233 S YUKON AVE,Sun-Sat,Daylight,29.2,http://www.cityoftulsa.org/government/departments/park-and-recreation/community-and-specialty-centers/reed-community-center,0,No,No,No,Yes,No,No,No,No,No,No,No,Yes,No,No,Yes,Yes,No,No,Yes,No,No,Yes,No,Yes,Yes,No,No,No,No,Yes,No,No,No,Municipal,2554594.85609283,407103.526788056
23,Stu-140,Stuart,790,Park,1400 N GILCREASE MUSEUM RD,Sun-Sat,Daylight,100.78,http://www.cityoftulsa.org/government/departments/park-and-recreation,0,No,No,No,No,No,No,No,No,No,No,No,No,No,No,No,No,No,No,No,No,No,No,No,No,No,No,No,No,No,No,No,No,No,Municipal,2550353.24425127,435542.746484302
24,Wes-262,West Highlands,790,Park,2626 W 61ST ST S,Sun-Sat,Daylight,29.95,http://www.cityoftulsa.org/government/departments/park-and-recreation,0,No,No,No,No,No,No,Yes,No,No,No,No,Yes,No,No,Yes,Yes,No,No,No,Yes,No,No,No,No,Yes,Yes,No,No,No,No,No,No,Yes,Municipal,2552953.25586554,397266.288834617
25,Haw-955,Hawthorne,790,Park,955 E 33RD ST N,Sun-Sat,Daylight,5.73,http://www.cityoftulsa.org/government/departments/park-and-recreation,0,No,No,No,No,No,No,No,No,No,No,No,No,No,No,No,No,No,No,No,No,No,No,No,No,No,No,No,No,No,No,No,No,No,Municipal,2564716.29254283,443889.631857432
26,Oxl-670,Oxley Nature Center,790,Park,6700 E MOHAWK BLVD,Sun-Sat,Daylight,745,http://www.cityoftulsa.org/government/departments/park-and-recreation/community-and-specialty-centers/oxley-nature-center-and-redbud-valley,0,Yes,No,No,No,No,No,Yes,No,No,No,No,No,No,No,No,No,No,No,No,No,No,No,No,No,No,No,No,No,No,No,No,No,Yes,Municipal,2586700.89055189,452095.219940968
27,Ben-163,Benedict,790,Park,1630 E 12TH ST,Sun-Sat,Daylight,3.8,http://www.cityoftulsa.org/government/departments/park-and-recreation,0,No,No,No,No,No,No,No,No,No,No,No,No,No,No,No,No,No,No,No,Yes,No,No,No,No,No,No,No,No,No,No,No,No,No,Municipal,2568624.11117074,422988.654138468
28,Hig-490,Highland,790,Park,4909 E 36TH ST S,Sun-Sat,Daylight,3.5,http://www.cityoftulsa.org/government/departments/park-and-recreation,0,No,No,No,No,No,No,Yes,No,No,No,No,Yes,No,No,No,No,No,No,No,Yes,No,Yes,No,No,Yes,No,No,No,No,No,No,No,No,Municipal,2582481.90292689,411357.98227191
29,Lov-916,Loving,790,Park,9162 E LATIMER ST,Sun-Sat,Daylight,10,http://www.cityoftulsa.org/government/departments/park-and-recreation,0,No,No,No,No,No,No,Yes,No,No,No,No,Yes,No,No,Yes,Yes,No,No,Yes,No,No,No,No,No,No,No,No,No,No,No,No,No,No,Municipal,2596319.61475272,432677.267471179
30,Min-401,Mini Park II,790,Park,401 W 7TH ST,Sun-Sat,Daylight,0.68,http://www.cityoftulsa.org/government/departments/park-and-recreation,0,No,No,No,No,No,No,No,No,No,No,No,No,No,No,No,No,No,No,No,No,No,No,No,No,No,No,No,No,No,No,No,No,No,Municipal,2561112.30450803,424098.942272224
31,Pra-162,Pratt,790,Park,1621 S FLORENCE AVE,Sun-Sat,Daylight,1.12,http://www.cityoftulsa.org/government/departments/park-and-recreation,0,No,No,No,No,No,No,No,No,No,No,No,No,No,No,No,No,No,No,No,No,No,No,No,No,No,No,No,No,No,No,No,No,No,Municipal,2575337.99579085,420616.404535867
32,Seq-354,Sequoyah,790,Park,3540 E NEWTON ST,Sun-Sat,Daylight,10.16,http://www.cityoftulsa.org/government/departments/park-and-recreation,0,No,No,No,No,No,No,No,No,No,No,No,Yes,No,No,No,Yes,No,No,No,No,No,No,No,No,No,No,No,No,No,No,No,No,Yes,Municipal,2577482.57114408,433565.523978785
33,Tur-350,Turner,790,Park,3503 E 5TH PL,Sun-Sat,Daylight,8.69,http://www.cityoftulsa.org/government/departments/park-and-recreation,0,No,No,No,No,No,No,Yes,No,No,No,No,Yes,No,No,No,Yes,No,No,No,No,No,No,No,No,Yes,No,No,No,No,No,No,No,No,Municipal,2577223.72692752,426412.168042742
34,Whe-220,Wheeling,790,Park,2209 N WHEELING AVE,Sun-Sat,Daylight,2.11,http://www.cityoftulsa.org/government/departments/park-and-recreation,0,No,No,No,No,No,No,Yes,No,No,No,No,Yes,No,No,No,No,No,No,No,No,No,Yes,No,No,No,No,No,No,No,No,No,No,No,Municipal,2568949.09370647,437812.230954513
35,Zin-321,Zink,790,Park,3216 S TRENTON AVE,Sun-Sat,Daylight,14.9,http://www.cityoftulsa.org/government/departments/park-and-recreation,0,Yes,No,No,No,No,No,Yes,No,No,No,No,Yes,No,No,No,Yes,No,No,No,Yes,No,Yes,No,No,Yes,Yes,No,No,No,No,No,No,Yes,Municipal,2568049.51504304,413098.036616594
36,Gil-140,Gilcrease Museum,790,Park,1400 N GILCREASE MUSEUM RD,Sun-Sat,Daylight,342.41,http://www.cityoftulsa.org/government/departments/park-and-recreation,0,No,No,No,No,No,No,No,No,No,No,No,No,No,No,No,No,No,No,No,No,No,No,No,No,No,No,No,No,No,No,No,No,No,Municipal,2552536.6486771,433423.285910241
37,Ber-500,Berry,790,Park,5002 N WHEELING AVE,Sun-Sat,Daylight,13.73,http://www.cityoftulsa.org/government/departments/park-and-recreation,0,No,No,No,Yes,No,No,Yes,No,No,No,No,Yes,No,No,No,No,Yes,No,Yes,No,No,No,No,No,Yes,No,No,No,No,No,No,No,No,Municipal,2568674.30505002,452786.301646076
38,Bra-503,Braden,790,Park,5036 E 7TH ST,Sun-Sat,Daylight,9.44,http://www.cityoftulsa.org/government/departments/park-and-recreation,0,No,No,No,No,No,No,Yes,No,No,No,No,Yes,No,No,Yes,Yes,No,No,Yes,No,No,Yes,No,No,No,No,No,No,No,No,No,No,No,Municipal,2582884.43452012,425214.319798678
39,Cat-22,Cathedral Square,790,Park,22 W 10TH ST,Sun-Sat,Daylight,0.34,http://www.cityoftulsa.org/government/departments/park-and-recreation,0,No,No,No,No,No,No,No,No,No,No,No,No,No,No,No,No,No,No,No,No,No,No,No,No,No,No,No,No,No,No,No,No,No,Municipal,2562436.78143585,423387.60880316
40,Cou-451,Cousins,790,Park,4514 E 121ST ST,Sun-Sat,Daylight,42.76,http://www.cityoftulsa.org/government/departments/park-and-recreation,0,No,No,No,No,No,No,No,No,No,No,No,No,No,No,No,No,No,No,No,No,No,No,No,No,No,No,No,No,No,No,No,No,No,Municipal,2583127.48398481,366317.984179512
41,Cre-850,Crescent,790,Park,8501 S 71ST E AVE,Sun-Sat,Daylight,12.86,http://www.cityoftulsa.org/government/departments/park-and-recreation,0,No,No,No,No,No,No,Yes,No,No,No,No,No,No,No,No,No,No,No,No,No,No,No,No,No,Yes,No,No,No,No,No,No,No,No,Municipal,2590187.05483939,385685.962995969
42,How-251,Howard,790,Park,2510 S SOUTHWEST BLVD,Sun-Sat,Daylight,7.15,http://www.cityoftulsa.org/government/departments/park-and-recreation,0,No,No,No,No,No,No,No,No,No,No,No,Yes,No,No,No,No,No,No,No,No,No,No,No,No,No,No,No,No,No,No,No,No,No,Municipal,2556961.63121491,415958.226926386
43,Pag-666,Page Belcher Golf Course,790,Park,6666 S UNION AVE,Sun-Sat,Daylight,316.02,http://www.cityoftulsa.org/government/departments/park-and-recreation,0,Yes,No,No,No,No,No,No,No,No,No,No,No,No,No,No,No,No,No,No,No,No,No,No,No,No,No,No,No,No,No,No,No,No,Municipal,2555193.37851783,394323.87756066
44,Riv-474,River Skate Park,790,Park,474 W 23RD ST,Sun-Sat,Daylight,2,http://www.cityoftulsa.org/government/departments/park-and-recreation/sports/skate-parks,0,No,No,No,No,No,No,No,No,No,No,No,No,No,No,No,No,No,No,No,No,No,No,No,No,No,No,No,Yes,No,No,No,No,No,Municipal,2560807.20915366,416972.282066911
45,Sha-367,Shannon I,790,Park,3670 S 106TH E AVE,Sun-Sat,Daylight,1.53,http://www.cityoftulsa.org/government/departments/park-and-recreation,0,No,No,No,No,No,No,Yes,No,No,No,No,No,No,No,No,No,No,No,No,No,No,No,No,No,No,No,No,No,No,No,No,No,Yes,Municipal,2600963.76146835,410479.94966118
46,Dre-187,Dream Keepers,790,Park,1875 S BOULDER PARK DR,Sun-Sat,Daylight,15,http://www.cityoftulsa.org/government/departments/park-and-recreation,0,Yes,No,No,No,No,No,Yes,No,No,No,No,Yes,No,No,No,Yes,No,No,No,No,No,Yes,No,No,Yes,No,No,No,No,No,No,No,No,Municipal,2562747.34634949,419425.017072849
47,Woo-780,Woodland View II,790,Park,7802 E 57TH ST S,Sun-Sat,Daylight,4.99,http://www.cityoftulsa.org/government/departments/park-and-recreation,0,No,No,No,No,No,No,No,No,No,No,No,No,No,No,Yes,No,No,No,No,No,No,No,No,No,No,No,No,No,No,No,No,No,No,Municipal,2594322.9528996,399799.485047743
48,Fla-150,Flat Rock Creek,790,Park,1501 E 36TH ST N,Sun-Sat,Daylight,210.63,http://www.cityoftulsa.org/government/departments/park-and-recreation,0,No,No,No,No,No,No,No,No,No,No,No,No,No,No,No,No,No,No,No,No,No,No,No,No,No,No,No,No,No,No,No,No,Yes,Municipal,2566921.39517001,447611.04173743
49,Hai-750,Haikey Creek,790,Park,7500 S 103RD E AVE,Sun-Sat,Daylight,31.6,http://www.cityoftulsa.org/government/departments/park-and-recreation,0,No,No,No,No,No,No,No,No,No,No,No,No,No,No,No,No,No,No,No,No,No,No,No,No,No,No,No,No,No,No,No,No,Yes,Municipal,2599209.75127887,391243.264053263
50,Hel-730,Helmerich,790,Park,7301 S RIVERSIDE DR,Sun-Sat,Daylight,78,http://www.cityoftulsa.org/government/departments/park-and-recreation,0,Yes,No,No,No,No,No,Yes,No,No,No,No,Yes,No,No,No,No,No,No,No,No,Yes,No,No,No,Yes,No,No,No,Yes,No,No,No,Yes,Municipal,2567505.21002929,390274.011562638
51,Sha-109,Shannon II,790,Park,10902 E 39TH PL,Sun-Sat,Daylight,4.89,http://www.cityoftulsa.org/government/departments/park-and-recreation,0,No,No,No,No,No,No,No,No,No,No,No,Yes,No,No,No,No,No,No,No,No,No,No,No,No,No,No,No,No,No,No,No,No,Yes,Municipal,2602524.74833981,409845.655490138
52,Moh-522,Mohawk Golf Course,790,Park,5223 E 41ST ST N,Sun-Sat,Daylight,312,http://www.cityoftulsa.org/government/departments/park-and-recreation,0,Yes,No,No,No,No,No,No,No,No,No,No,No,No,No,No,No,No,No,No,No,No,No,No,No,No,No,No,No,No,No,No,No,No,Municipal,2582595.9094246,448386.113185972
53,Cha-600,Chapman Green,790,Park,600 S MAIN ST,Sun-Sat,Daylight,2,http://www.cityoftulsa.org/government/departments/park-and-recreation,0,No,No,No,No,No,No,No,No,No,No,No,No,No,No,No,No,No,No,No,No,No,No,No,No,No,No,No,No,No,No,No,No,No,Municipal,2562236.45539293,424944.254722014
54,Lan-470,Langenheim,790,Park,4701 S HARVARD AVE,Sun-Sat,Daylight,7.74,http://www.cityoftulsa.org/government/departments/park-and-recreation,0,No,No,No,No,No,No,No,No,No,No,No,Yes,No,No,No,Yes,No,No,No,Yes,No,No,No,No,No,No,No,No,No,No,No,Yes,Yes,Municipal,2577104.71141751,405109.652002849
55,Joe-172,Joe Station Bark Park,790,Park,1723 CHARLES PAGE BLVD,Sun-Sat,Daylight,4,http://www.cityoftulsa.org/government/departments/park-and-recreation,0,Yes,No,No,No,No,No,No,No,No,No,No,No,No,No,No,No,No,No,No,No,No,No,Yes,No,No,No,No,No,No,No,No,No,No,Municipal,2554340.1096371,425055.66895128
56,Arc-283,Archer,790,Park,2831 E ARCHER ST,Sun-Sat,Daylight,4.8,http://www.cityoftulsa.org/government/departments/park-and-recreation,0,Yes,No,No,No,No,No,Yes,No,No,No,No,Yes,No,No,No,No,Yes,No,Yes,No,No,Yes,No,No,No,No,No,No,No,No,No,No,No,Municipal,2574521.63259418,429647.744330764
57,Ken-264,Kendall-Whittier,790,Park,2645 E 5TH ST S,Sun-Sat,Daylight,13.75,http://www.cityoftulsa.org/government/departments/park-and-recreation,0,Yes,No,No,No,No,No,Yes,No,No,No,No,Yes,No,No,No,No,No,No,No,No,Yes,No,No,No,Yes,No,No,No,No,No,No,No,No,Municipal,2572898.0449621,426013.202305242
58,Nor-323,Norberg,790,Park,3235 S GARNETT RD,Sun-Sat,Daylight,16.36,http://www.cityoftulsa.org/government/departments/park-and-recreation,0,No,No,No,No,No,No,Yes,No,No,No,No,Yes,No,No,No,Yes,No,No,No,Yes,No,No,No,No,Yes,Yes,No,No,No,No,No,No,Yes,Municipal,2603215.00040418,413184.411115766
59,Cow-109,Cowan,790,Park,10901 E 19TH ST,Sun-Sat,Daylight,4.87,http://www.cityoftulsa.org/government/departments/park-and-recreation,0,No,No,No,No,No,No,No,No,No,No,No,Yes,No,No,No,Yes,No,No,Yes,No,No,No,No,No,No,No,No,No,No,No,No,No,No,Municipal,2601920.68253678,420375.999012746
60,Hil-210,Hill,790,Park,210 E LATIMER PL,Sun-Sat,Daylight,5.05,http://www.cityoftulsa.org/government/departments/park-and-recreation,0,No,No,No,No,No,No,Yes,No,No,No,No,Yes,No,No,No,No,Yes,No,No,Yes,No,No,No,No,No,No,No,No,No,Yes,No,No,No,Municipal,2560939.93075502,431896.180204615
61,Lub-290,Lubell,790,Park,2909 W 56TH ST S,Sun-Sat,Daylight,16,http://www.cityoftulsa.org/government/departments/park-and-recreation,0,No,No,No,No,No,No,No,No,No,No,No,No,No,No,No,No,No,No,No,No,No,No,No,No,No,No,No,No,No,No,No,No,Yes,Municipal,2552052.72986147,401181.995406076
62,Min-740,Minshall,790,Park,7404 S KINGSTON AVE,Sun-Sat,Daylight,31,http://www.cityoftulsa.org/government/departments/park-and-recreation,0,No,No,No,No,No,No,Yes,No,No,No,No,Yes,No,No,No,No,No,No,No,No,No,No,No,No,Yes,No,No,No,No,No,No,No,Yes,Municipal,2586519.75656376,391607.455418058
63,Qui-107,Quik Trip,790,Park,10750 E 61ST ST,Sun-Sat,Daylight,7.2,http://www.cityoftulsa.org/government/departments/park-and-recreation,0,No,No,No,No,No,No,No,No,No,No,No,No,No,No,No,No,No,No,No,No,No,No,No,No,No,No,No,No,No,No,No,No,No,Municipal,2602158.72134877,398175.885932744
64,Ske-852,Skelly,790,Park,8525 E 23RD PL S,Sun-Sat,Daylight,4.94,http://www.cityoftulsa.org/government/departments/park-and-recreation,0,No,No,No,No,No,No,No,No,No,No,No,Yes,No,No,No,Yes,No,No,Yes,No,No,No,No,No,No,No,No,No,No,No,No,No,No,Municipal,2593910.14696668,418047.937723994
65,Tor-105,Torchia-Oliver,790,Park,10519 S DELAWARE AVE,Sun-Sat,Daylight,46,http://www.cityoftulsa.org/government/departments/park-and-recreation,0,No,No,No,No,No,No,No,No,No,No,No,No,No,No,Yes,No,No,No,No,No,No,No,No,No,No,No,No,No,No,No,No,No,No,Municipal,2576203.67319335,374060.187363058
66,Whi-400,Whiteside,790,Park,4009 S PITTSBURG AVE,Sun-Sat,Daylight,19.09,http://www.cityoftulsa.org/government/departments/park-and-recreation/community-and-specialty-centers/whiteside-community-center,0,Yes,No,No,No,No,No,Yes,No,No,No,No,Yes,No,No,Yes,Yes,No,No,No,Yes,Yes,No,No,No,Yes,No,Yes,No,Yes,Yes,No,No,No,Municipal,2579594.93609585,408856.293131597
67,Rou-815,Route 66 Plaza,790,Park,815 S RIVERSIDE DR,Sun-Sat,Daylight,0.5,http://www.cityoftulsa.org/government/departments/park-and-recreation,0,No,No,No,No,No,No,No,No,No,No,No,No,No,No,No,No,No,No,No,No,No,No,No,No,No,No,No,No,No,No,No,No,No,Municipal,2558051.72335887,422689.224373162
68,Gra-641,Graham,790,Park,6410 S YORKTOWN AVE,Sun-Sat,Daylight,29.95,http://www.cityoftulsa.org/government/departments/park-and-recreation,0,No,No,No,No,No,No,No,No,No,No,No,Yes,No,No,Yes,No,No,No,No,Yes,No,No,No,No,Yes,No,No,No,No,No,No,No,Yes,Municipal,2570521.6717621,395859.781641074
69,Rod-264,Rodden,790,Park,2646 E 61ST ST N,Sun-Sat,Daylight,7,http://www.cityoftulsa.org/government/departments/park-and-recreation,0,No,No,No,No,No,No,No,No,No,No,No,No,No,No,No,Yes,No,No,No,No,No,No,No,No,No,No,No,No,No,No,No,No,No,Municipal,2572513.95739366,458535.43261826
70,Aar-480,Aaronson,790,Park,4807 S 87TH E AVE,Sun-Sat,Daylight,6,http://www.cityoftulsa.org/government/departments/park-and-recreation,0,No,No,No,No,No,No,No,No,No,No,No,Yes,No,No,No,No,No,No,Yes,No,No,No,No,No,No,Yes,No,No,No,No,No,No,No,Municipal,2594978.72750668,404698.38355045
71,Bul-100,Bullette,790,Park,1001 E KING ST,Sun-Sat,Daylight,1.82,http://www.cityoftulsa.org/government/departments/park-and-recreation,0,No,No,No,No,No,No,Yes,No,No,No,No,Yes,No,No,No,No,No,No,No,No,No,No,No,No,No,Yes,No,No,No,No,No,No,No,Municipal,2564866.34350585,431199.902889825
72,Cen-102,Veterans Park,790,Park,1028 E 6TH ST,Sun-Sat,Daylight,11.65,http://www.cityoftulsa.org/government/departments/park-and-recreation/community-and-specialty-centers/central-center,0,No,No,No,No,No,No,No,No,No,No,No,No,No,No,No,No,No,No,No,No,No,No,No,No,No,No,No,No,No,Yes,No,No,Yes,Municipal,2565083.74833678,425693.296038888
73,Lan-821,Lantz,790,Park,821 N YALE AVE,Sun-Sat,Daylight,9.24,http://www.cityoftulsa.org/government/departments/park-and-recreation,0,Yes,No,No,No,No,No,No,No,No,No,No,Yes,No,No,No,Yes,No,No,No,No,No,No,No,No,No,No,No,No,No,No,No,No,No,Municipal,2581700.14021876,431418.962901182
74,Flo-193,Florence,790,Park,1936 S GARY AVE,Sun-Sat,Daylight,1.25,http://www.cityoftulsa.org/government/departments/park-and-recreation,0,No,No,No,No,No,No,No,No,No,No,No,Yes,No,No,No,No,No,No,Yes,No,No,Yes,No,No,Yes,No,No,No,No,No,No,No,No,Municipal,2575987.52451147,419146.14377889
76,Hen-482,Henthorne,790,Park,4825 S QUAKER AVE,Sun-Sat,Daylight,7.33,http://www.cityoftulsa.org/government/departments/park-and-recreation,0,No,No,No,No,No,No,No,No,No,No,No,Yes,No,No,Yes,Yes,Yes,No,No,Yes,No,No,No,No,Yes,No,No,No,No,Yes,No,No,No,Municipal,2567194.5327471,404817.836641595
77,Cla-114,Clark,790,Park,11440 E ADMIRAL PL,Sun-Sat,Daylight,13,http://www.cityoftulsa.org/government/departments/park-and-recreation,0,No,No,No,No,No,No,Yes,No,No,No,No,Yes,No,No,No,Yes,No,No,No,Yes,No,No,No,No,Yes,No,No,No,No,No,No,No,No,Municipal,2604048.90621668,429295.002254099
78,Cru-134,Crutchfield,790,Park,1345 E INDEPENDENCE AVE,Sun-Sat,Daylight,2.06,http://www.cityoftulsa.org/government/departments/park-and-recreation,0,No,No,No,No,No,No,Yes,No,No,No,No,No,No,No,No,Yes,No,No,No,No,No,Yes,No,No,No,Yes,No,No,No,No,No,No,No,Municipal,2566706.77084533,430636.28361024
79,Daw-203,Dawson,790,Park,2035 N KINGSTON PL,Sun-Sat,Daylight,1.41,http://www.cityoftulsa.org/government/departments/park-and-recreation,0,No,No,No,No,No,No,No,No,No,No,No,Yes,No,No,No,Yes,No,No,No,No,No,Yes,No,No,No,No,No,No,No,Yes,No,No,No,Municipal,2585449.77100689,437746.777919412
80,Llo-212,Lloyd,790,Park,2121 E 29TH ST N,Sun-Sat,Daylight,5,http://www.cityoftulsa.org/government/departments/park-and-recreation,0,No,No,No,No,No,No,Yes,No,No,No,No,Yes,No,No,Yes,Yes,No,No,Yes,No,No,No,No,No,No,Yes,No,No,No,No,No,No,No,Municipal,2569796.19708116,441410.588669203
81,McC-744,McClure,790,Park,7440 E 7TH ST,Sun-Sat,Daylight,53.44,http://www.cityoftulsa.org/government/departments/park-and-recreation,0,Yes,No,No,Yes,No,No,No,No,No,No,No,Yes,No,No,Yes,Yes,Yes,No,No,Yes,No,No,No,Yes,No,No,No,No,No,Yes,No,No,Yes,Municipal,2591662.81509325,425933.417359829
82,Max-525,Maxwell,790,Park,5251 E NEWTON ST,Sun-Sat,Daylight,15.16,http://www.cityoftulsa.org/government/departments/park-and-recreation,0,No,No,No,No,No,No,Yes,No,No,No,No,Yes,No,No,No,No,Yes,No,No,Yes,Yes,No,No,No,No,No,No,No,No,No,No,No,No,Municipal,2583056.11642741,433772.717626072
83,Min-211,Mini Park I,790,Park,2118 E UTE ST,Sun-Sat,Daylight,0.81,http://www.cityoftulsa.org/government/departments/park-and-recreation,0,No,No,No,No,No,No,No,No,No,No,No,No,No,No,No,No,No,No,No,No,No,No,No,No,No,No,No,No,No,No,No,No,No,Municipal,2570016.05679564,436999.348722011
84,New-171,Newblock,790,Park,1710 W CHARLES PAGE BLVD,Sun-Sat,Daylight,84.56,http://www.cityoftulsa.org/government/departments/park-and-recreation,0,No,No,No,No,No,No,Yes,No,No,No,No,Yes,No,No,No,Yes,No,No,No,No,No,No,No,No,No,No,No,No,No,Yes,No,No,No,Municipal,2555413.10166762,424719.445460349
85,Pla-702,Plaza of the Americas,790,Park,702 S DENVER AVE,Sun-Sat,Daylight,0.6,http://www.cityoftulsa.org/government/departments/park-and-recreation,0,No,No,No,No,No,No,No,No,No,No,No,No,No,No,No,No,No,No,No,No,No,No,No,No,No,No,No,No,No,No,No,No,No,Municipal,2561062.29886658,424025.0127941
86,Sch-382,Schlegel,790,Park,3825 W 53RD PL S,Sun-Sat,Daylight,4.94,http://www.cityoftulsa.org/government/departments/park-and-recreation,0,No,No,No,No,No,No,Yes,No,No,No,No,Yes,No,No,No,Yes,Yes,No,No,No,Yes,No,No,No,Yes,No,No,No,No,No,No,No,No,Municipal,2548610.57590262,401165.899637744
87,Tra-113,Tracy,790,Park,1134 S PEORIA AVE,Sun-Sat,Daylight,3.34,http://www.cityoftulsa.org/government/departments/park-and-recreation,0,No,No,No,No,No,No,No,No,No,No,No,Yes,No,No,No,No,No,No,No,Yes,No,Yes,No,No,Yes,No,No,No,No,No,No,No,No,Municipal,2565368.04935939,423880.185327843
88,Wes-100,Celebration,790,Park,1002 W 21ST ST S,Sun-Sat,Daylight,23.21,http://www.cityoftulsa.org/government/departments/park-and-recreation,0,No,No,No,No,No,No,No,No,No,No,No,Yes,No,No,No,Yes,Yes,No,No,No,No,Yes,No,No,No,No,No,No,No,No,No,No,No,Municipal,2558141.1158146,418150.2902916
89,Zei-390,Zeigler,790,Park,3903 W 4TH ST S,Sun-Sat,Daylight,23.02,http://www.cityoftulsa.org/government/departments/park-and-recreation,0,Yes,No,No,No,No,No,Yes,No,No,No,No,Yes,No,No,Yes,Yes,No,No,No,Yes,No,Yes,No,No,No,Yes,No,No,No,No,No,No,No,Municipal,2548192.31312366,425318.548592843
90,Gar-122,Gary,790,Park,1225 S GARY PL,Sun-Sat,Daylight,0.48,http://www.cityoftulsa.org/government/departments/park-and-recreation,0,No,No,No,No,No,No,No,No,No,No,No,Yes,No,No,No,No,No,No,No,No,No,No,No,No,No,No,No,No,No,No,No,No,No,Municipal,2576249.12954929,423279.147733994
91,Ben-116,Benton,790,Park,1167 N 66TH E AVE,Sun-Sat,Daylight,2.34,http://www.cityoftulsa.org/government/departments/park-and-recreation,0,No,No,No,No,No,No,No,No,No,No,No,Yes,No,No,No,Yes,No,No,No,No,No,No,No,No,No,No,No,No,No,No,No,No,No,Municipal,2587286.04604168,433338.731863469
92,Boo-644,Boots Adams,790,Park,6441 S 76TH E AVE,Sun-Sat,Daylight,8.7,http://www.cityoftulsa.org/government/departments/park-and-recreation,0,No,No,No,No,No,No,No,No,No,No,No,Yes,No,No,No,No,No,No,No,No,No,No,No,No,Yes,Yes,No,No,No,No,No,No,No,Municipal,2591774.25926012,396074.009395033
93,Sav-178,Savage Park,790,Park,17800 E 21ST ST S,Sun-Sat,Daylight,20,http://www.cityoftulsa.org/government/departments/park-and-recreation,0,Yes,No,No,No,No,No,No,No,No,No,No,No,No,No,No,Yes,No,No,No,No,No,No,No,No,No,No,No,No,No,No,No,No,No,Municipal,2625412.08691543,420072.354196802
94,Chi-312,Chittom (Clinton),790,Park,3121 E QUEEN ST,Sun-Sat,Daylight,10,http://www.cityoftulsa.org/government/departments/park-and-recreation,0,No,No,No,No,No,No,Yes,No,No,No,No,No,No,No,No,Yes,No,No,Yes,No,No,No,No,No,No,Yes,No,No,No,No,No,No,No,Municipal,2575217.0855996,435583.32383097
95,Cre-180,Creek Stickball Park,790,Park,1800 S CHEYENNE AVE,Sun-Sat,Daylight,1.87,http://www.cityoftulsa.org/government/departments/park-and-recreation,0,No,No,No,No,No,No,No,No,No,No,No,No,No,No,No,No,No,No,No,No,No,No,No,No,No,No,No,No,No,No,No,No,No,Municipal,2562084.76442335,419663.814577535
96,Hol-411,Holiday Hills,790,Park,4111 E 54TH ST,Sun-Sat,Daylight,5,http://www.cityoftulsa.org/government/departments/park-and-recreation,0,No,No,No,No,No,No,No,No,No,No,No,No,No,No,Yes,Yes,No,No,Yes,No,No,No,No,Yes,Yes,No,No,No,No,No,No,No,No,Municipal,2580351.08984929,400633.807526074
97,Hun-580,Hunter,790,Park,5804 E 91ST ST,Sun-Sat,Daylight,80,http://www.cityoftulsa.org/government/departments/park-and-recreation,0,Yes,No,No,No,No,No,Yes,No,No,No,No,Yes,No,No,No,No,Yes,No,No,No,Yes,No,Yes,Yes,No,No,No,No,No,No,Yes,No,Yes,Municipal,2585752.47668429,382194.211859412
98,Man-300,Manion,790,Park,3003 E 56TH ST S,Sun-Sat,Daylight,26.53,http://www.cityoftulsa.org/government/departments/park-and-recreation,0,No,No,No,No,No,No,Yes,No,No,No,No,Yes,No,No,No,No,Yes,No,No,Yes,Yes,No,No,No,No,No,Yes,No,No,No,No,No,No,Municipal,2575741.38204116,400515.405121803
99,Map-404,Maple,790,Park,404 E 15TH ST S,Sun-Sat,Daylight,7,http://www.cityoftulsa.org/government/departments/park-and-recreation,0,No,No,No,No,No,No,No,No,No,No,No,Yes,No,No,No,No,No,No,No,No,No,Yes,No,No,No,No,No,No,No,No,No,No,No,Municipal,2564762.08108314,421377.677619614
100,Moh-300,Mohawk Soccer Complex,790,Park,3000 E 56TH ST N,Sun-Sat,Daylight,320,http://www.cityoftulsa.org/government/departments/park-and-recreation,0,No,No,No,No,No,No,No,No,No,No,No,No,No,No,Yes,No,No,No,No,No,No,No,No,No,No,No,No,No,No,No,No,No,No,Municipal,2577299.42846574,454744.183639094
101,Owe-560,Owen,790,Park,560 N MAYBELLE ST,Sun-Sat,Daylight,23.75,http://www.cityoftulsa.org/government/departments/park-and-recreation,0,No,No,No,No,No,No,Yes,No,No,No,No,Yes,No,No,Yes,Yes,No,No,No,No,Yes,No,No,No,No,No,No,No,Yes,Yes,No,No,No,Municipal,2557389.82466627,427961.888532534
102,Pat-512,Patrick,790,Park,5123 E DAWSON RD,Sun-Sat,Daylight,30,http://www.cityoftulsa.org/government/departments/park-and-recreation,0,Yes,No,No,No,No,No,No,No,No,No,No,Yes,No,No,No,Yes,No,No,No,No,No,No,No,No,Yes,No,No,No,No,No,No,No,Yes,Municipal,2582822.74460085,436636.231830135
103,Rig-920,Riggs,790,Park,9207 E 101ST ST,Sun-Sat,Daylight,13,http://www.cityoftulsa.org/government/departments/park-and-recreation,0,No,No,No,No,No,No,Yes,No,No,No,No,Yes,No,No,No,No,No,No,No,No,No,No,No,No,No,No,No,No,No,No,No,No,Yes,Municipal,2597297.9666346,377265.596798681
104,Ros-317,Rose Dew,790,Park,317 S 167TH E AVE,Sun-Sat,Daylight,5,http://www.cityoftulsa.org/government/departments/park-and-recreation,0,No,No,No,No,No,No,Yes,No,No,No,No,Yes,No,No,No,No,No,No,No,No,No,No,No,No,No,Yes,No,No,No,No,No,No,No,Municipal,2620718.25197897,428318.860833682
105,Swa-157,Swan Lake,790,Park,1573 SWAN DR,Sun-Sat,Daylight,4.03,http://www.cityoftulsa.org/government/departments/park-and-recreation,0,No,No,No,No,No,No,No,No,No,No,No,Yes,No,No,No,No,No,No,No,No,No,No,No,No,No,No,No,No,No,No,No,No,No,Municipal,2568523.52041064,419957.465154931
106,Sta-272,Standard Industries Tract,790,Park,2726 S 53RD W AVE,Sun-Sat,Daylight,16.53,http://www.cityoftulsa.org/government/departments/park-and-recreation,0,No,No,No,No,No,No,No,No,No,No,No,No,No,No,No,No,No,No,No,No,No,No,No,No,No,No,No,No,No,No,No,No,No,Municipal,2543866.56431127,415097.120544933
107,Ute-190,Ute,790,Park,1900 N PITTSBURG AVE,Sun-Sat,Daylight,10,http://www.cityoftulsa.org/government/departments/park-and-recreation,0,No,No,No,No,No,No,No,No,No,No,No,No,No,No,No,Yes,No,No,No,No,No,No,No,No,Yes,Yes,No,No,No,No,No,No,No,Municipal,2578989.70272626,437289.084034927
108,Vin-650,Vining,790,Park,6502 N CINCINNATI AVE,Sun-Sat,Daylight,6,http://www.cityoftulsa.org/government/departments/park-and-recreation,0,No,No,No,No,No,No,Yes,No,No,No,No,Yes,No,No,No,Yes,No,No,No,No,Yes,No,No,No,Yes,Yes,No,No,No,No,No,No,No,Municipal,2560089.48954251,460032.112285659
109,Woo-844,Woodland View I,790,Park,8445 E 58TH PL S,Sun-Sat,Daylight,4.77,http://www.cityoftulsa.org/government/departments/park-and-recreation,0,No,No,No,No,No,No,No,No,No,No,No,No,No,No,No,No,No,No,No,No,No,No,No,No,No,No,No,No,No,No,No,No,No,Municipal,2592168.33942668,400308.151599303
110,Woo-210,Woodward,790,Park,2101 S PEORIA AVE,Sun-Sat,Daylight,33.98,http://www.cityoftulsa.org/government/departments/park-and-recreation,0,Yes,No,No,No,No,No,Yes,No,No,No,No,Yes,No,No,No,No,No,No,No,No,No,No,No,No,Yes,No,No,No,No,No,No,No,No,Municipal,2567163.68922283,417644.977161802
111,Hel-532,Heller,790,Park,5328 S WHEELING AVE,Sun-Sat,Daylight,16.27,http://www.cityoftulsa.org/government/departments/park-and-recreation,0,No,No,No,No,No,No,Yes,No,No,No,No,Yes,No,No,Yes,Yes,No,No,No,Yes,No,No,No,No,Yes,No,No,No,No,No,No,No,No,Municipal,2569858.38937804,401228.109569095
112,Bal-580,Bales,790,Park,5801 S UNION AVE,Sun-Sat,Daylight,67.5,http://www.cityoftulsa.org/government/departments/park-and-recreation,0,Yes,No,No,No,No,No,No,No,No,No,No,No,No,No,No,Yes,No,No,No,No,No,No,No,No,Yes,No,No,No,No,No,No,No,Yes,Municipal,2555989.13315991,399249.622302324
113,Lac-213,Lacy,790,Park,2134 N MADISON PL,Sun-Sat,Daylight,13.37,http://www.cityoftulsa.org/government/departments/park-and-recreation/community-and-specialty-centers/lacy-community-center,0,No,No,No,Yes,No,No,No,No,No,No,No,Yes,No,No,No,Yes,Yes,No,No,Yes,Yes,Yes,No,No,Yes,No,No,No,No,Yes,No,No,No,Municipal,2564577.52846668,437930.46562618
114,Wil-101,Williams,790,Park,101 W 28TH ST N,Sun-Sat,Daylight,18.36,http://www.cityoftulsa.org/government/departments/park-and-recreation,0,Yes,No,No,No,No,No,Yes,No,No,No,No,Yes,No,No,No,No,No,No,No,No,No,No,No,No,No,Yes,No,No,No,No,No,No,No,Municipal,2559300.77269803,441791.065680556
115,Eas-290,East Park Tract,790,Park,2909 S 132ND E AVE,Sun-Sat,Daylight,14.42,http://www.cityoftulsa.org/government/departments/park-and-recreation,0,No,No,No,No,No,No,No,No,No,No,No,Yes,No,No,No,No,No,No,No,No,No,No,No,No,No,No,No,No,No,No,No,No,Yes,Municipal,2609901.10005689,415233.842712432
116,Als-980,Alsuma,790,Park,9801 E 51ST ST S,Sun-Sat,Daylight,1,http://www.cityoftulsa.org/government/departments/park-and-recreation,0,No,No,No,No,No,No,No,No,No,No,No,No,No,No,Yes,No,No,No,No,No,No,No,No,No,No,No,No,No,No,No,No,No,No,Municipal,2598418.54141116,403729.587505765
117,Hic-344,Hicks,790,Park,3443 S MINGO RD,Sun-Sat,Daylight,20,http://www.cityoftulsa.org/government/departments/park-and-recreation/community-and-specialty-centers/hicks-community-center,0,Yes,No,No,No,No,No,Yes,No,No,No,No,Yes,No,No,No,Yes,No,No,No,Yes,No,No,No,No,Yes,No,No,No,Yes,Yes,No,No,Yes,Municipal,2598039.91519991,411835.749525033
118,Cha-390,Challenger 7,790,Park,3909 W 41ST ST,Sun-Sat,Daylight,19.58,http://www.cityoftulsa.org/government/departments/park-and-recreation,0,Yes,No,No,No,No,No,No,No,No,No,No,Yes,No,No,No,Yes,No,No,Yes,No,No,No,No,No,Yes,No,No,No,No,No,No,No,No,Municipal,2548401.76685502,407933.946715139
119,Cra-242,Crawford,790,Park,2425 N HARTFORD AVE,Sun-Sat,Daylight,24.09,http://www.cityoftulsa.org/government/departments/park-and-recreation,0,Yes,No,No,No,No,No,Yes,No,No,No,No,Yes,No,No,Yes,No,No,No,No,No,No,No,No,No,No,No,No,No,No,No,No,No,Yes,Municipal,2563244.34502741,438892.83082743
120,Hil-121,Hilti,790,Park,12148 E 51ST ST S,Sun-Sat,Daylight,29.3,http://www.cityoftulsa.org/government/departments/park-and-recreation,0,Yes,No,No,No,No,No,No,No,No,No,No,No,No,No,No,Yes,No,No,No,No,No,No,No,No,Yes,No,No,No,No,No,No,No,Yes,Municipal,2605427.68954835,403805.665109515
121,Lum-250,Lumpkin,790,Park,2505 W 66T ST N,Sun-Sat,Daylight,40,http://www.cityoftulsa.org/government/departments/park-and-recreation,0,No,No,No,No,No,No,No,No,No,No,No,No,No,No,No,No,No,No,No,No,No,No,No,No,No,No,No,No,No,No,No,No,No,Municipal,2555974.27918699,459300.331022844
122,Mit-594,Mitchell,790,Park,5949 E 36TH PL,Sun-Sat,Daylight,6.49,http://www.cityoftulsa.org/government/departments/park-and-recreation,0,No,No,No,No,No,No,No,No,No,No,No,No,No,No,No,Yes,No,No,No,No,No,No,No,No,Yes,No,No,No,No,No,No,No,No,Municipal,2585602.88011668,410794.191568784
123,Nor-343,North 56th St Tract,790,Park,3435 E 56TH ST N,Sun-Sat,Daylight,3.03,http://www.cityoftulsa.org/government/departments/park-and-recreation,0,No,No,No,No,No,No,No,No,No,No,No,No,No,No,No,No,No,No,No,No,No,No,No,No,No,No,No,No,No,No,No,No,No,Municipal,2577158.74018085,456476.596512847
124,Pen-531,Penney,790,Park,531 S 49TH W AVE,Sun-Sat,Daylight,1.28,http://www.cityoftulsa.org/government/departments/park-and-recreation,0,No,No,No,No,No,No,Yes,No,No,No,No,Yes,No,No,No,No,Yes,No,No,No,No,Yes,No,No,Yes,No,No,No,No,No,No,No,No,Municipal,2545030.49858116,424030.093164511
125,Spr-222,Springdale,790,Park,2223 E PINE ST,Sun-Sat,Daylight,9.53,http://www.cityoftulsa.org/government/departments/park-and-recreation,0,No,No,No,No,No,No,No,No,No,No,No,Yes,No,No,Yes,Yes,Yes,No,Yes,No,No,No,No,No,No,No,No,No,No,No,No,No,No,Municipal,2570382.45616126,434847.674465656
126,Ter-287,Terrace,790,Park,2877 S 77TH E AVE,Sun-Sat,Daylight,20,http://www.cityoftulsa.org/government/departments/park-and-recreation,0,No,No,No,No,No,No,No,No,No,No,No,Yes,No,No,No,No,No,No,No,No,No,No,No,No,No,No,No,No,No,No,No,No,No,Municipal,2591855.66370689,416176.977719203
127,Gun-112,Gunboat North,790,Park,1122 S FRANKFORT AVE,Sun-Sat,Daylight,0.25,http://www.cityoftulsa.org/government/departments/park-and-recreation,0,No,No,No,No,No,No,No,No,No,No,No,No,No,No,No,No,No,No,No,No,No,No,No,No,No,No,No,No,No,No,No,No,No,Municipal,2564495.95669741,423785.37703649
128,Ada-162,Adams,790,Park,1627 N ATLANTA PL,Sun-Sat,Daylight,0.6,http://www.cityoftulsa.org/government/departments/park-and-recreation,0,No,No,No,No,No,No,No,No,No,No,No,No,No,No,No,No,No,No,No,No,No,No,No,No,No,No,No,No,No,No,No,No,No,Municipal,2571824.69778137,435719.128185347
129,Car-280,Carbondale,790,Park,2802 W 48TH ST S,Sun-Sat,Daylight,1.91,http://www.cityoftulsa.org/government/departments/park-and-recreation,0,No,No,No,No,No,No,Yes,No,No,No,No,Yes,No,No,No,No,No,No,Yes,No,No,Yes,No,No,Yes,Yes,No,No,No,No,No,No,No,Municipal,2552270.88846387,403822.245210864
130,Lea-771,Leake,790,Park,7714 E 71ST ST,Sun-Sat,Daylight,23,http://www.cityoftulsa.org/government/departments/park-and-recreation,0,No,No,No,No,No,No,Yes,No,No,No,No,Yes,No,No,No,Yes,No,No,No,Yes,No,No,No,No,Yes,No,No,No,Yes,No,No,No,No,Municipal,2592446.52661637,391753.349155135
131,Tul-570,Mohawk Park,790,Park,5701 E 36TH ST N,Sun-Sat,Daylight,3170,http://www.cityoftulsa.org/government/departments/park-and-recreation,0,Yes,No,No,No,No,No,Yes,No,No,No,No,Yes,No,No,No,No,No,No,No,No,No,No,No,No,No,No,No,No,No,No,No,No,Yes,Municipal,2586445.5769221,448392.449295349
132,Fra-181,"Franklin, BC",790,Park,1818 E VIRGIN AVE,Sun-Sat,Daylight,16.44,http://www.cityoftulsa.org/government/departments/park-and-recreation,0,No,No,No,No,No,No,Yes,No,No,No,No,Yes,No,No,Yes,Yes,Yes,No,No,No,No,No,No,No,No,No,No,No,No,No,No,No,Yes,Municipal,2568443.2113521,437348.200960658
133,Red-161,Redbud Valley Nature Preserve,790,Park,16150 REDBUD DR,Sun-Sat,Daylight,82,http://www.cityoftulsa.org/government/departments/park-and-recreation/community-and-specialty-centers/oxley-nature-center-and-redbud-valley,0,Yes,No,No,No,No,No,Yes,No,No,No,No,No,No,No,No,No,No,No,No,No,No,No,No,No,No,No,No,No,No,No,No,No,Yes,Municipal,2618052.71515127,451513.240297846
134,Joh-171,Johnson H.B.,790,Park,1714 S 123RD E AVE,Sat-Sun,Daylight,5,http://www.cityoftulsa.org/government/departments/park-and-recreation,0,No,No,No,No,No,No,Yes,No,No,No,No,No,No,No,No,No,No,No,Yes,No,No,No,No,No,Yes,No,No,No,No,No,No,No,Yes,Municipal,2606235.95892918,421119.127857849
135,Fre-600,Fred Johnson,790,Park,6002 S RIVERSIDE RD,Sun-Sat,Daylight,32.8,http://www.cityoftulsa.org/government/departments/park-and-recreation,0,No,No,No,No,No,No,Yes,No,No,No,No,Yes,No,No,No,Yes,Yes,No,No,No,No,Yes,No,No,Yes,No,No,No,No,No,No,No,No,Municipal,2565287.18748043,398321.062807739
137,Joh-743,Johnson Paul,790,Park,7433 S PITTSBURG AVE,Sun-Sat,Daylight,10,http://www.cityoftulsa.org/government/departments/park-and-recreation,0,No,No,No,No,No,No,No,No,No,No,No,No,No,No,No,No,No,No,No,No,No,No,No,No,No,No,No,No,No,No,No,No,Yes,Municipal,2580018.73487095,391046.418564409
138,Gat-265,Gathering Place,790,Park,2650 S John Williams Way E,Sun-Sat,Daylight,1,http://www.gatheringplace.org/,530,Yes,Yes,No,No,No,No,Yes,Yes,No,Yes,No,Yes,No,No,No,No,Yes,No,Yes,Yes,Yes,Yes,No,No,Yes,No,No,Yes,No,No,No,Yes,Yes,Other,2563744.71927272,415508.262685239
139,Cen-310,Central,790,,3101 W Edison St,,,,,,No,No,No,No,No,No,No,No,No,No,No,No,No,No,No,No,No,No,Yes,No,No,No,No,No,No,No,No,No,No,No,No,No,No,School,2551086.14632877,429276.474157952
140,Str-113,Street,790,,1135 S Yale Ave,,,,,,No,No,No,No,No,No,Yes,No,No,No,No,No,No,No,No,No,No,No,No,No,No,No,No,No,No,No,No,No,No,No,No,No,No,School,2582082.72106449,423921.429093786
141,Dua-270,Dual Language Academy,790,,2703 N Yorktown Pl,,,,,,No,No,No,No,No,No,No,No,No,No,No,Yes,No,No,No,No,No,No,No,No,No,No,No,No,No,No,No,No,No,No,No,No,No,School,2570056.22649876,440805.341766179
142,Mcl-492,Mclain,790,,4929 N Peoria Ave,,,,,,No,No,No,No,No,No,No,No,No,No,No,No,No,No,No,Yes,No,No,Yes,No,No,No,No,No,No,No,No,No,No,No,No,No,No,School,2565684.31513106,452345.796457537
143,Tra-274,Traice Academy Middle & High,790,,2740 E 41st St N,,,,,,No,No,No,No,No,No,No,No,No,No,No,No,No,No,No,No,No,No,No,No,No,No,No,No,No,No,No,No,No,No,No,No,No,School,2573209.63349574,447855.701271072
144,Pro-120,Project Accept Traice Elementary,790,,1205 W Newton St,,,,,,No,No,No,No,No,No,No,No,No,No,No,Yes,No,No,No,No,No,No,No,No,No,No,No,No,No,No,No,No,No,No,No,No,No,School,2557189.33745241,433184.030319199
145,Mem-750,Memorial,790,,7502 E 57th St,,,,,,No,No,No,No,No,No,No,No,No,No,No,No,No,No,Yes,No,Yes,No,No,No,No,No,No,No,No,No,No,No,No,No,No,No,No,School,2590917.39048501,400527.32192868
146,Tul-620,Tulsa Met Jr. High & High,790,,6201 E Virgin St,,,,,,No,No,No,No,No,No,No,No,No,No,No,No,No,No,No,No,No,No,No,No,No,No,No,No,No,No,No,No,No,No,No,No,No,School,2586205.72298908,437957.255270764
147,Eis-311,Eisenhower International,790,,3111 E 56th St,,,,,,No,No,No,No,No,No,No,No,No,No,No,Yes,No,No,No,No,Yes,No,No,No,No,No,No,No,No,No,No,No,No,No,No,No,No,School,2576140.64059304,400712.100102432
148,Gri-321,Grimes,790,,3213 E 56th St,,,,,,No,No,No,No,No,No,No,No,No,No,No,Yes,No,No,No,No,No,No,No,No,No,No,No,No,No,No,No,No,No,No,No,No,No,School,2576810.94888168,400641.072931491
149,Zar-361,Zarrow International,790,,3613 S Hudson Ave,,,,,,No,No,No,No,No,No,No,No,No,No,No,Yes,No,No,No,No,No,No,No,No,No,No,No,No,No,No,No,No,No,No,No,No,No,School,2584919.94718137,411054.847215451
150,Rob-272,Robertson,790,,2721 W 50th St,,,,,,No,No,No,No,No,No,No,No,No,No,No,Yes,No,No,No,No,Yes,No,No,No,No,No,No,No,No,No,No,No,No,No,No,No,No,School,2552432.47278637,403499.676138163
151,Sal-762,Salk,790,,7625 E 58th St,,,,,,No,No,No,No,No,No,No,No,No,No,No,Yes,No,No,No,No,No,No,No,No,No,No,No,No,No,No,No,No,No,No,No,No,No,School,2591529.45126877,400416.0048941
152,Dis-117,Disney ,790,,11702 E 25th St,,,,,,No,No,No,No,No,No,No,No,No,No,No,Yes,No,No,No,No,No,No,No,No,No,No,No,No,No,No,No,No,No,No,No,No,No,School,2604972.55922502,417423.697666697
153,Ske-271,Skelly (PreK - 1st),790,,2714 S 90th Ave E,,,,,,No,No,No,No,No,No,No,No,No,No,No,Yes,No,No,No,No,No,No,No,No,No,No,No,No,No,No,No,No,No,No,No,No,No,School,2595921.12719668,415250.054540239
154,Ske-294,Skelly (2nd - 6th),790,,2940 S 90th Ave E,,,,,,No,No,No,No,No,No,No,No,No,No,No,Yes,No,No,No,No,No,No,No,No,No,No,No,No,No,No,No,No,No,No,No,No,No,School,2595937.85616585,414490.361997947
155,And-192,Anderson,790,,1921 E 29th St N,,,,,,No,No,No,No,No,No,No,No,No,No,No,Yes,No,No,No,No,No,No,No,No,No,No,No,No,No,No,No,No,No,No,No,No,No,School,2569212.81775251,441470.54589837
156,Haw-110,Hawthorne,790,,1105 E 33rd St N,,,5.73,,,No,No,No,No,No,No,No,No,No,No,No,Yes,No,No,No,No,No,No,No,No,No,No,No,No,No,No,No,No,No,No,No,No,No,School,2565581.63407002,444272.531764202
157,Way-413,Wayman Tisdale Fine Arts Academy ,790,,4132 W Cameron St,,,,,,No,No,No,No,No,No,No,No,No,No,No,Yes,No,No,No,No,Yes,No,No,No,No,No,No,No,No,No,No,No,No,No,No,No,No,School,2547091.04605126,427254.788158678
158,Mar-541,Mark Twain,790,,541 S 43rd Ave W,,,,,,No,No,No,No,No,No,No,No,No,No,No,Yes,No,No,Yes,No,No,No,No,No,No,No,No,No,No,No,No,No,No,No,No,No,No,School,2547121.90310897,424207.247911908
159,Mac-218,Macarthur,790,,2182 S 73rd Ave E,,,,,,No,No,No,No,No,No,No,No,No,No,No,Yes,No,No,No,No,No,No,No,No,No,No,No,No,No,No,No,No,No,No,No,No,No,School,2589794.92881918,418209.996126913
160,Gil-555,Gilcrease,790,,5550 N Martin Luther King Jr Blvd,,,342.41,,,No,No,No,No,No,No,No,No,No,No,No,Yes,No,No,Yes,No,No,No,No,No,No,No,No,No,No,No,No,No,No,No,No,No,No,School,2559906.90378564,455515.123288162
161,ECD-540,ECDC Bunche,790,,5402 N Martin Luther King Jr Blvd,,,,,,No,No,No,No,No,No,No,No,No,No,No,Yes,No,No,No,No,No,No,No,No,No,No,No,No,No,No,No,No,No,No,No,No,No,School,2560092.57516627,454221.902039304
162,Aca-178,Academy Central,790,,1789 W Seminole St,,,,,,No,No,No,No,No,No,No,No,No,No,No,Yes,No,No,No,No,No,No,No,No,No,No,No,No,No,No,No,No,No,No,No,No,No,School,2555041.60183647,435823.774875656
163,Bur-192,Burroughs ,790,,1924 N Martin Luther King Jr Blvd,,,,,,No,No,No,No,No,No,No,No,No,No,No,Yes,No,No,No,No,No,No,No,No,No,No,No,No,No,No,No,No,No,No,No,No,No,School,2560089.17376231,436737.988106281
164,May-112,Mayo Demonstration,790,,1127 S Columbia Ave,,,,,,No,No,No,No,No,No,No,No,No,No,No,Yes,No,No,Yes,No,No,No,No,No,No,No,No,No,No,No,No,No,No,No,No,No,No,School,2573519.34580283,423880.244382843
165,Art-120,Arts & Sciences @ Roosevelt,790,,1202 W Easton St,,,,,,No,No,No,No,No,No,No,No,No,No,No,No,No,No,No,No,No,No,No,No,No,No,No,No,No,No,No,No,No,No,No,No,No,School,2557300.03030845,427595.890248783
166,Mcc-177,McClure Elementary School,790,,1770 E 61st St,,,,,,No,No,No,No,No,No,No,No,No,No,No,Yes,No,No,No,No,Yes,No,No,No,No,No,No,No,No,No,No,No,No,No,No,No,No,School,2570336.74595085,397243.496475346
167,Mar-114,Marshall ,790,,1142 E 56th St,,,,,,No,No,No,No,No,No,No,No,No,No,No,Yes,No,No,No,No,No,No,No,No,No,No,No,No,No,No,No,No,No,No,No,No,No,School,2566042.9405621,400055.810404517
168,Pat-382,Patrick Henry,790,,3820 E 41st St,,,,,,No,No,No,No,No,No,No,No,No,No,No,Yes,No,No,No,No,No,No,No,No,No,No,No,No,No,No,No,No,No,No,No,No,No,School,2578368.45806981,408289.872840554
169,Wri-111,Wright,790,,1110 E 45th Pl,,,4.66,,,No,No,No,No,No,No,No,No,No,No,No,Yes,No,No,No,No,No,No,No,No,No,No,No,No,No,No,No,No,No,No,No,No,No,School,2565740.3132146,405779.486621179
170,Eli-144,Eliot,790,,1442 E 36th St,,,,,,No,No,No,No,No,No,No,No,No,No,No,Yes,No,No,Yes,No,Yes,No,No,No,No,No,No,No,No,No,No,No,No,No,No,No,No,School,2567580.94355564,410715.246106595
171,Pen-213,Penn ,790,,2138 E 48th St N,,,,,,No,No,No,No,No,No,No,No,No,No,No,Yes,No,No,No,No,No,No,No,No,No,No,No,No,No,No,No,No,No,No,No,No,No,School,2569827.74926543,451897.470582537
172,Whi-392,Whitman,790,,3924 N Lansing Ave,,,,,,No,No,No,No,No,No,No,No,No,No,No,Yes,No,No,No,No,No,No,No,No,No,No,No,No,No,No,No,No,No,No,No,No,No,School,2563704.21984585,446771.296041593
173,Mit-733,Mitchell,790,,733 N 73rd Ave E,,,6.49,,,No,No,No,No,No,No,No,No,No,No,No,Yes,No,No,No,No,No,No,No,No,No,No,No,No,No,No,No,No,No,No,No,No,No,School,2589778.15268803,431101.332302846
174,Mck-670,McKinley,790,,6703 E King St,,,,,,No,No,No,No,No,No,No,No,No,No,No,Yes,No,No,No,No,No,No,No,No,No,No,No,No,No,No,No,No,No,No,No,No,No,School,2587993.95678137,432429.45874764
175,Bel-630,Bell,790,,6304 E Admiral Blvd,,,,,,No,No,No,No,No,No,Yes,No,No,No,No,Yes,No,No,Yes,No,No,No,No,No,No,No,No,No,No,No,No,No,No,No,No,No,No,School,2586358.57455345,428728.650860555
176,Spr-251,Springdale,790,,2510 E Pine St,,,9.53,,,No,No,No,No,No,No,No,No,No,No,No,Yes,No,No,Yes,No,No,No,No,No,No,No,No,No,No,No,No,No,No,No,No,No,No,School,2571792.57186137,434527.230142638
177,Uni-213,Unity Learning Academy ,790,,2137 N Pittsburg Ave,,,,,,No,No,No,No,No,No,No,No,No,No,No,Yes,No,No,No,No,No,No,No,No,No,No,No,No,No,No,No,No,No,No,No,No,No,School,2579058.40624699,437975.192816906
178,Cel-174,Celia Clinton,790,,1740 N Harvard Ave,,,,,,No,No,No,No,No,No,No,No,No,No,No,Yes,No,No,No,No,No,No,No,No,No,No,No,No,No,No,No,No,No,No,No,No,No,School,2575906.05936928,436086.894018054
179,Owe-113,Owen,790,,1132 N Vandalia Ave,,,23.75,,,No,No,No,No,No,No,No,No,No,No,No,Yes,No,No,No,No,No,No,No,No,No,No,No,No,No,No,No,No,No,No,No,No,No,School,2580837.39260043,432636.570374094
180,Ham-231,Hamilton,790,,2316 N Norwood Pl,,,,,,No,No,No,No,No,No,No,No,No,No,No,Yes,No,No,Yes,No,No,No,No,No,No,No,No,No,No,No,No,No,No,No,No,No,No,School,2586181.46614783,438998.439212017
181,Tul-209,Tulsa Honor @ Bell Primary ,790,,209 S Lakewood Ave,,,,,,No,No,No,No,No,No,Yes,No,No,No,No,Yes,No,No,Yes,No,No,No,No,No,No,No,No,No,No,No,No,No,No,No,No,No,No,School,2585794.1018471,428358.698762536
182,Car-430,Carnegie,790,,4309 E 56th St,,,,,,No,No,No,No,No,No,No,No,No,No,No,Yes,No,No,Yes,No,No,No,No,No,No,No,No,No,No,No,No,No,No,No,No,No,No,School,2580391.7701321,400726.667822637
183,Hoo-232,Hoover,790,,2327 S Darlington Ave,,,,,,No,No,No,No,No,No,No,No,No,No,No,Yes,No,No,No,No,No,No,No,No,No,No,No,No,No,No,No,No,No,No,No,No,No,School,2583484.39148949,417690.407271072
184,Key-570,Key,790,,5702 S Irvington Ave,,,,,,No,No,No,No,No,No,Yes,No,No,No,No,Yes,No,No,No,No,No,No,No,No,No,No,No,No,No,No,No,No,No,No,No,No,No,School,2585387.02014814,400151.836705245
185,Lan-172,Lanier,790,,1727 S Harvard Ave,,,,,,No,No,No,No,No,No,No,No,No,No,No,Yes,No,No,Yes,No,No,No,No,No,No,No,No,No,No,No,No,No,No,No,No,No,No,School,2576736.58223252,420113.54259868
186,Cou-192,Council Oak  ,790,,1920 S Cincinnati Ave,,,,,,No,No,No,No,No,No,No,No,No,No,No,Yes,No,No,Yes,No,Yes,No,No,No,No,No,No,No,No,No,No,No,No,No,No,No,No,School,2563840.41051835,419063.474160761
187,Jon-151,Jones,790,,1515 S 71st Ave E,,,,,,No,No,No,No,No,No,No,No,No,No,No,Yes,No,No,No,No,No,No,No,No,No,No,No,No,No,No,No,No,No,No,No,No,No,School,2589625.02225283,421807.430697121
188,Dol-106,Dolores Huerta ,790,,10620 E 27th St,,,,,,No,No,No,No,No,No,No,No,No,No,No,Yes,No,No,Yes,No,No,No,No,No,No,No,No,No,No,No,No,No,No,No,No,No,No,School,2600854.8000721,416343.381175764
189,Pea-108,Peary,790,,10818 E 17th St,,,,,,No,No,No,No,No,No,No,No,No,No,No,Yes,No,No,No,No,Yes,No,No,No,No,No,No,No,No,No,No,No,No,No,No,No,No,School,2601550.79113418,420989.771981388
190,Coo-180,Cooper,790,,1808 S 123rd Ave E,,,,,,No,No,No,No,No,No,No,No,No,No,No,Yes,No,No,No,No,Yes,No,No,No,No,No,No,No,No,No,No,No,No,No,No,No,No,School,2606080.86368491,420862.635178573
191,Lin-931,Lindbergh,790,,931 S 89th Ave E,,,,,,No,No,No,No,No,No,Yes,No,No,No,No,Yes,No,No,Yes,No,Yes,No,No,No,No,No,No,No,No,No,No,No,No,No,No,No,No,School,2595181.85128022,425105.880054928
192,Ker-202,Kerr,790,,202 S 117th Ave E,,,,,,No,No,No,No,No,No,No,No,No,No,No,Yes,No,No,No,No,No,No,No,No,No,No,No,No,No,No,No,No,No,No,No,No,No,School,2603837.88875814,428196.799069926
193,Seq-724,Sequoyah,790,,724 N Birmingham Ave,,,10.16,,,No,No,No,No,No,No,No,No,No,No,No,Yes,No,No,No,No,Yes,No,No,No,No,No,No,No,No,No,No,No,No,No,No,No,No,School,2572180.94911939,430551.210371599
194,Rog-390,Rogers College,790,,3909 E 5th Pl,,,,,,No,No,No,No,No,No,No,No,No,No,No,No,No,No,No,No,No,No,No,No,No,No,No,No,No,No,No,No,No,No,No,No,No,School,2578428.37551887,426655.3524317
195,Web-191,Webster,790,,1919 W 40th St,,,,,,No,No,No,No,No,No,No,No,No,No,No,No,No,No,No,No,No,No,No,No,No,No,No,No,No,No,No,No,No,No,No,No,No,School,2554771.38666168,408612.855298266
196,Mem-584,Memorial,790,,5840 S Hudson Ave,,,,,,No,No,No,No,No,No,No,No,No,No,No,No,No,No,No,Yes,Yes,No,No,No,No,No,No,No,No,No,No,No,No,No,No,No,No,School,2584605.20494668,399702.190704927
197,Was-151,Washington,790,,1514 E Zion St,,,,,,No,No,No,No,No,No,No,No,No,No,No,No,No,No,No,Yes,No,No,No,No,No,No,No,No,No,No,No,No,No,No,No,No,No,School,2567240.98647637,438976.721325658
198,Edi-290,Edison Preparatory,790,,2906 E 41st St,,,,,,No,No,No,No,No,No,No,No,No,No,No,No,No,No,No,No,Yes,No,Yes,No,No,No,No,No,No,No,No,No,No,No,No,No,No,School,2575185.45262481,408263.268152952
199,Hal-696,Hale,790,,6960 E 21st St,,,,,,No,No,No,No,No,No,No,No,No,No,No,No,No,No,No,Yes,No,No,Yes,No,No,No,No,No,No,No,No,No,No,No,No,No,No,School,2589551.29454595,418867.416892119
200,Eas-121,East Central,790,,12150 E 11th St,,,,,,No,No,No,No,No,No,No,No,No,No,No,No,No,No,No,No,Yes,No,No,No,No,No,No,No,No,No,No,No,No,No,No,No,No,School,2605812.644077,424698.416959099
201,Cli-222,Clinton West,790,,2224 W 41st St,,,,,,No,No,No,No,No,No,No,No,No,No,No,Yes,No,No,No,No,No,No,No,No,No,No,No,No,No,No,No,No,No,No,No,No,No,School,2553919.75819762,407657.146907844
202,Hal-217,Hale,790,,2177 S 67th Ave E,,,,,,No,No,No,No,No,No,No,No,No,No,No,No,No,No,No,No,Yes,No,Yes,No,No,No,No,No,No,No,No,No,No,No,No,No,No,School,2588979.65362887,418150.978036284
203,Car-624,Carver,790,,624 E Oklahoma Pl,,,,,,No,No,No,No,No,No,Yes,No,No,No,No,No,No,No,No,No,No,No,No,No,No,No,No,No,No,No,No,No,No,No,No,No,No,School,2563104.63197022,434154.944551907
204,Kip-166,Kipp Tulsa College Preparatory @ Woods,790,,1661 E Virgin St,,,,,,No,No,No,No,No,No,No,No,No,No,No,No,No,No,No,No,No,No,No,No,No,No,No,No,No,No,No,No,No,No,No,No,No,School,2567709.02892939,437667.388724513
205,Mcl-525,Mclain Seventh Grade Academy,790,,525 E 46th St N,,,,,,No,No,No,No,No,No,No,No,No,No,No,No,No,No,No,No,No,No,No,No,No,No,No,No,No,No,No,No,No,No,No,No,No,School,2561875.82127168,450539.142836593
206,Mon-201,Monroe Demonstration Academy,790,,2010 E 48th St N,,,,,,No,No,No,No,No,No,No,No,No,No,No,Yes,No,No,No,No,Yes,No,No,No,No,No,No,No,No,No,No,No,No,No,No,No,No,School,2568975.25466137,451757.492187947
207,Eas-121,East Central,790,,12121 E 21st St,,,,,,No,No,No,No,No,No,No,No,No,No,No,No,No,No,No,No,Yes,No,No,No,No,No,No,No,No,No,No,No,No,No,No,No,No,School,2606177.91524605,419950.600011177
208,Tho-737,Thoreau Demonstration Academy,790,,7370 E 71st St,,,,,,No,No,No,No,No,No,No,No,No,No,No,No,No,No,Yes,No,Yes,No,No,No,No,No,No,No,No,No,No,No,No,No,No,No,No,School,2591484.77780168,392683.819325037
209,Pho-344,Phoenix Rising,790,,3441 E Archer St,,,,,,No,No,No,No,No,No,No,No,No,No,No,Yes,No,No,No,No,No,No,No,No,No,No,No,No,No,No,No,No,No,No,No,No,No,School,2576936.83896783,429789.535385765
210,Col-252,College Bound @ Eastside,790,,2525 S 101st Ave E,,,,,,No,No,No,No,No,No,No,No,No,No,No,Yes,No,No,No,No,No,No,No,No,No,No,No,No,No,No,No,No,No,No,No,No,No,School,2599348.93366126,416678.171762742
211,Tul-105,Tulsa Legacy: Primary Academy @ Greeley,790,,105 E 63rd St N,,,,,,No,No,No,No,No,No,No,No,No,No,No,Yes,No,No,No,No,No,No,No,No,No,No,No,No,No,No,No,No,No,No,No,No,No,School,2559838.81214033,459390.759811804
212,Tul-600,Tulsa Legacy: Upper Academy @ Cherokee,790,,6001 N Peoria Ave,,,,,,No,No,No,No,No,No,No,No,No,No,No,Yes,No,No,No,No,No,No,No,No,No,No,No,No,No,No,No,No,No,No,No,No,No,School,2565595.23066356,457663.697977223
213,Gri-664,Grissom,790,,6646 S 73rd Ave E,,,,,,No,No,No,No,No,No,Yes,No,No,No,No,Yes,No,No,Yes,No,No,No,No,No,No,No,No,No,No,No,No,No,No,No,No,No,No,School,2590364.40438626,394965.607330345
214,Eme-910,Emerson ,790,,910 N Martin Luther King Jr Blvd,,,,,,No,No,No,No,No,No,No,No,No,No,No,Yes,No,No,No,No,No,No,No,No,No,No,No,No,No,No,No,No,No,No,No,No,No,School,2560118.46914335,431006.031886496
